[{"OBJECT_NAME":"STARLINK-32433","OBJECT_ID":"2024-202H","EPOCH":"2026-03-03T14:59:24.394560","MEAN_MOTION":15.27582459,"ECCENTRICITY":0.0003904,"INCLINATION":43.0085,"RA_OF_ASC_NODE":271.942,"ARG_OF_PERICENTER":300.9967,"MEAN_ANOMALY":59.0501,"EPHEMERIS_TYPE":0,"CLASSIFICATION_TYPE":"U","NORAD_CAT_ID":61852,"ELEMENT_SET_NO":999,"REV_AT_EPOCH":7441,"BSTAR":-0.0001746,"MEAN_MOTION_DOT":-5.066e-5,"MEAN_MOTION_DDOT":0},{"OBJECT_NAME":"STARLINK-32394","OBJECT_ID":"2024-202J","EPOCH":"2026-03-03T15:03:05.562144","MEAN_MOTION":15.27577607,"ECCENTRICITY":9.8e-5,"INCLINATION":42.9999,"RA_OF_ASC_NODE":271.9514,"ARG_OF_PERICENTER":271.3652,"MEAN_ANOMALY":88.7088,"EPHEMERIS_TYPE":0,"CLASSIFICATION_TYPE":"U","NORAD_CAT_ID":61853,"ELEMENT_SET_NO":999,"REV_AT_EPOCH":7440,"BSTAR":3.9104e-5,"MEAN_MOTION_DOT":8.14e-6,"MEAN_MOTION_DDOT":0},{"OBJECT_NAME":"STARLINK-32486","OBJECT_ID":"2024-202K","EPOCH":"2026-03-03T15:08:38.582304","MEAN_MOTION":15.27597728,"ECCENTRICITY":0.0001289,"INCLINATION":43.0044,"RA_OF_ASC_NODE":271.981,"ARG_OF_PERICENTER":266.8331,"MEAN_ANOMALY":93.2373,"EPHEMERIS_TYPE":0,"CLASSIFICATION_TYPE":"U","NORAD_CAT_ID":61854,"ELEMENT_SET_NO":999,"REV_AT_EPOCH":7441,"BSTAR":-0.00011731,"MEAN_MOTION_DOT":-3.491e-5,"MEAN_MOTION_DDOT":0},{"OBJECT_NAME":"STARLINK-32391","OBJECT_ID":"2024-202L","EPOCH":"2026-03-03T15:14:11.968800","MEAN_MOTION":15.27617128,"ECCENTRICITY":0.0001165,"INCLINATION":43.0033,"RA_OF_ASC_NODE":272.0101,"ARG_OF_PERICENTER":237.3636,"MEAN_ANOMALY":122.7103,"EPHEMERIS_TYPE":0,"CLASSIFICATION_TYPE":"U","NORAD_CAT_ID":61855,"ELEMENT_SET_NO":999,"REV_AT_EPOCH":7440,"BSTAR":-0.00030737,"MEAN_MOTION_DOT":-8.72e-5,"MEAN_MOTION_DDOT":0},{"OBJECT_NAME":"STARLINK-32483","OBJECT_ID":"2024-202M","EPOCH":"2026-03-02T23:38:11.187744","MEAN_MOTION":15.27551034,"ECCENTRICITY":9.579e-5,"INCLINATION":43.0028,"RA_OF_ASC_NODE":275.732,"ARG_OF_PERICENTER":252.8431,"MEAN_ANOMALY":107.2315,"EPHEMERIS_TYPE":0,"CLASSIFICATION_TYPE":"U","NORAD_CAT_ID":61856,"ELEMENT_SET_NO":999,"REV_AT_EPOCH":7431,"BSTAR":0.00025903932,"MEAN_MOTION_DOT":6.867e-5,"MEAN_MOTION_DDOT":0},{"OBJECT_NAME":"STARLINK-32451","OBJECT_ID":"2024-202N","EPOCH":"2026-03-03T21:47:27.993696","MEAN_MOTION":15.27578781,"ECCENTRICITY":0.00031324,"INCLINATION":42.9979,"RA_OF_ASC_NODE":270.6207,"ARG_OF_PERICENTER":241.866,"MEAN_ANOMALY":118.1875,"EPHEMERIS_TYPE":0,"CLASSIFICATION_TYPE":"U","NORAD_CAT_ID":61857,"ELEMENT_SET_NO":999,"REV_AT_EPOCH":7445,"BSTAR":3.7472435e-5,"MEAN_MOTION_DOT":7.69e-6,"MEAN_MOTION_DDOT":0},{"OBJECT_NAME":"STARLINK-32556","OBJECT_ID":"2024-202P","EPOCH":"2026-03-03T15:25:18.370272","MEAN_MOTION":15.27573284,"ECCENTRICITY":0.0001526,"INCLINATION":43.0029,"RA_OF_ASC_NODE":272.069,"ARG_OF_PERICENTER":279.659,"MEAN_ANOMALY":80.4089,"EPHEMERIS_TYPE":0,"CLASSIFICATION_TYPE":"U","NORAD_CAT_ID":61858,"ELEMENT_SET_NO":999,"REV_AT_EPOCH":7441,"BSTAR":-1.4281e-6,"MEAN_MOTION_DOT":-3.01e-6,"MEAN_MOTION_DDOT":0},{"OBJECT_NAME":"STARLINK-32466","OBJECT_ID":"2024-202Q","EPOCH":"2026-03-03T23:25:19.684992","MEAN_MOTION":15.2757977,"ECCENTRICITY":9.003e-5,"INCLINATION":43.0009,"RA_OF_ASC_NODE":270.2722,"ARG_OF_PERICENTER":248.4702,"MEAN_ANOMALY":111.6054,"EPHEMERIS_TYPE":0,"CLASSIFICATION_TYPE":"U","NORAD_CAT_ID":61859,"ELEMENT_SET_NO":999,"REV_AT_EPOCH":7446,"BSTAR":6.9635985e-5,"MEAN_MOTION_DOT":1.655e-5,"MEAN_MOTION_DDOT":0},{"OBJECT_NAME":"STARLINK-32316","OBJECT_ID":"2024-202R","EPOCH":"2026-03-03T13:37:01.517088","MEAN_MOTION":15.27578669,"ECCENTRICITY":0.0001207,"INCLINATION":43.0002,"RA_OF_ASC_NODE":268.8989,"ARG_OF_PERICENTER":218.7914,"MEAN_ANOMALY":141.2851,"EPHEMERIS_TYPE":0,"CLASSIFICATION_TYPE":"U","NORAD_CAT_ID":61860,"ELEMENT_SET_NO":999,"REV_AT_EPOCH":7443,"BSTAR":3.5512e-5,"MEAN_MOTION_DOT":7.15e-6,"MEAN_MOTION_DDOT":0},{"OBJECT_NAME":"STARLINK-32415","OBJECT_ID":"2024-202S","EPOCH":"2026-03-03T14:11:29.938272","MEAN_MOTION":15.27576647,"ECCENTRICITY":9.31e-5,"INCLINATION":43.0005,"RA_OF_ASC_NODE":272.5456,"ARG_OF_PERICENTER":277.4349,"MEAN_ANOMALY":82.6397,"EPHEMERIS_TYPE":0,"CLASSIFICATION_TYPE":"U","NORAD_CAT_ID":61861,"ELEMENT_SET_NO":999,"REV_AT_EPOCH":7439,"BSTAR":3.7842e-5,"MEAN_MOTION_DOT":7.79e-6,"MEAN_MOTION_DDOT":0},{"OBJECT_NAME":"STARLINK-32393","OBJECT_ID":"2024-202T","EPOCH":"2026-03-03T14:05:56.916384","MEAN_MOTION":15.27575289,"ECCENTRICITY":0.0001389,"INCLINATION":43.002,"RA_OF_ASC_NODE":272.5169,"ARG_OF_PERICENTER":268.7585,"MEAN_ANOMALY":91.3108,"EPHEMERIS_TYPE":0,"CLASSIFICATION_TYPE":"U","NORAD_CAT_ID":61862,"ELEMENT_SET_NO":999,"REV_AT_EPOCH":7440,"BSTAR":2.0715e-5,"MEAN_MOTION_DOT":3.08e-6,"MEAN_MOTION_DDOT":0},{"OBJECT_NAME":"STARLINK-32324","OBJECT_ID":"2024-202U","EPOCH":"2026-03-03T22:13:22.837728","MEAN_MOTION":15.27579645,"ECCENTRICITY":0.00010569,"INCLINATION":43.0007,"RA_OF_ASC_NODE":270.7546,"ARG_OF_PERICENTER":266.845,"MEAN_ANOMALY":93.2281,"EPHEMERIS_TYPE":0,"CLASSIFICATION_TYPE":"U","NORAD_CAT_ID":61863,"ELEMENT_SET_NO":999,"REV_AT_EPOCH":7444,"BSTAR":5.2093421e-5,"MEAN_MOTION_DOT":1.172e-5,"MEAN_MOTION_DDOT":0},{"OBJECT_NAME":"STARLINK-32318","OBJECT_ID":"2024-202V","EPOCH":"2026-03-03T22:22:37.569792","MEAN_MOTION":15.2758068,"ECCENTRICITY":8.923e-5,"INCLINATION":43.0004,"RA_OF_ASC_NODE":270.8041,"ARG_OF_PERICENTER":284.176,"MEAN_ANOMALY":75.8992,"EPHEMERIS_TYPE":0,"CLASSIFICATION_TYPE":"U","NORAD_CAT_ID":61864,"ELEMENT_SET_NO":999,"REV_AT_EPOCH":7445,"BSTAR":6.177956e-5,"MEAN_MOTION_DOT":1.438e-5,"MEAN_MOTION_DDOT":0},{"OBJECT_NAME":"STARLINK-32401","OBJECT_ID":"2024-202W","EPOCH":"2026-03-03T22:28:11.000352","MEAN_MOTION":15.27576713,"ECCENTRICITY":0.00011692,"INCLINATION":42.9983,"RA_OF_ASC_NODE":270.828,"ARG_OF_PERICENTER":278.5467,"MEAN_ANOMALY":81.5252,"EPHEMERIS_TYPE":0,"CLASSIFICATION_TYPE":"U","NORAD_CAT_ID":61865,"ELEMENT_SET_NO":999,"REV_AT_EPOCH":7445,"BSTAR":4.770325e-5,"MEAN_MOTION_DOT":1.051e-5,"MEAN_MOTION_DDOT":0},{"OBJECT_NAME":"STARLINK-32588","OBJECT_ID":"2024-202X","EPOCH":"2026-03-03T22:18:55.559808","MEAN_MOTION":15.27572996,"ECCENTRICITY":6.813e-5,"INCLINATION":43.0019,"RA_OF_ASC_NODE":270.7847,"ARG_OF_PERICENTER":274.6914,"MEAN_ANOMALY":85.3859,"EPHEMERIS_TYPE":0,"CLASSIFICATION_TYPE":"U","NORAD_CAT_ID":61866,"ELEMENT_SET_NO":999,"REV_AT_EPOCH":7445,"BSTAR":9.2187045e-5,"MEAN_MOTION_DOT":2.275e-5,"MEAN_MOTION_DDOT":0},{"OBJECT_NAME":"STARLINK-32569","OBJECT_ID":"2024-202Y","EPOCH":"2026-03-03T14:42:59.082912","MEAN_MOTION":15.2755333,"ECCENTRICITY":8.0e-5,"INCLINATION":42.9994,"RA_OF_ASC_NODE":272.7046,"ARG_OF_PERICENTER":255.3569,"MEAN_ANOMALY":104.7194,"EPHEMERIS_TYPE":0,"CLASSIFICATION_TYPE":"U","NORAD_CAT_ID":61867,"ELEMENT_SET_NO":999,"REV_AT_EPOCH":7440,"BSTAR":-7.8338e-5,"MEAN_MOTION_DOT":-2.415e-5,"MEAN_MOTION_DDOT":0},{"OBJECT_NAME":"STARLINK-11402 [DTC]","OBJECT_ID":"2024-204A","EPOCH":"2026-03-03T03:43:12.439776","MEAN_MOTION":15.69708108,"ECCENTRICITY":0.00010175,"INCLINATION":53.1578,"RA_OF_ASC_NODE":28.8385,"ARG_OF_PERICENTER":129.295,"MEAN_ANOMALY":230.8158,"EPHEMERIS_TYPE":0,"CLASSIFICATION_TYPE":"U","NORAD_CAT_ID":61874,"ELEMENT_SET_NO":999,"REV_AT_EPOCH":7647,"BSTAR":5.68872e-6,"MEAN_MOTION_DOT":1.01e-6,"MEAN_MOTION_DDOT":0}]
