STARLINK-32433          
1 61852U 24202H   26062.62458790 -.00005066  00000+0 -17460-3 0  9998
2 61852  43.0085 271.9420 0003904 300.9967  59.0501 15.27582459 74413
STARLINK-32394          
1 61853U 24202J   26062.62714771  .00000814  00000+0  39104-4 0  9997
2 61853  42.9999 271.9514 0000980 271.3652  88.7088 15.27577607 74400
STARLINK-32486          
1 61854U 24202K   26062.63100211 -.00003491  00000+0 -11731-3 0  9998
2 61854  43.0044 271.9810 0001289 266.8331  93.2373 15.27597728 74414
STARLINK-32391          
1 61855U 24202L   26062.63486075 -.00008720  00000+0 -30737-3 0  9991
2 61855  43.0033 272.0101 0001165 237.3636 122.7103 15.27617128 74407
STARLINK-32483          
1 61856U 24202M   26061.98485171  .00006867  00000+0  25904-3 0  9993
2 61856  43.0028 275.7320 0000957 252.8431 107.2315 15.27551034 74314
STARLINK-32451          
1 61857U 24202N   26062.90796289  .00000769  00000+0  37472-4 0  9991
2 61857  42.9979 270.6207 0003132 241.8660 118.1875 15.27578781 74451
STARLINK-32556          
1 61858U 24202P   26062.64257373 -.00000301  00000+0 -14281-5 0  9997
2 61858  43.0029 272.0690 0001526 279.6590  80.4089 15.27573284 74415
STARLINK-32466          
1 61859U 24202Q   26062.97592228  .00001655  00000+0  69636-4 0  9999
2 61859  43.0009 270.2722 0000900 248.4702 111.6054 15.27579770 74464
STARLINK-32316          
1 61860U 24202R   26062.56737867  .00000715  00000+0  35512-4 0  9998
2 61860  43.0002 268.8989 0001207 218.7914 141.2851 15.27578669 74430
STARLINK-32415          
1 61861U 24202S   26062.59131873  .00000779  00000+0  37842-4 0  9995
2 61861  43.0005 272.5456 0000931 277.4349  82.6397 15.27576647 74394
STARLINK-32393          
1 61862U 24202T   26062.58746431  .00000308  00000+0  20715-4 0  9996
2 61862  43.0020 272.5169 0001389 268.7585  91.3108 15.27575289 74406
STARLINK-32324          
1 61863U 24202U   26062.92595877  .00001172  00000+0  52093-4 0  9995
2 61863  43.0007 270.7546 0001056 266.8450  93.2281 15.27579645 74449
STARLINK-32318          
1 61864U 24202V   26062.93237928  .00001438  00000+0  61780-4 0  9995
2 61864  43.0004 270.8041 0000892 284.1760  75.8992 15.27580680 74459
STARLINK-32401          
1 61865U 24202W   26062.93623843  .00001051  00000+0  47703-4 0  9991
2 61865  42.9983 270.8280 0001169 278.5467  81.5252 15.27576713 74453
STARLINK-32588          
1 61866U 24202X   26062.92980972  .00002275  00000+0  92187-4 0  9995
2 61866  43.0019 270.7847 0000681 274.6914  85.3859 15.27572996 74450
STARLINK-32569          
1 61867U 24202Y   26062.61318383 -.00002415  00000+0 -78338-4 0  9993
2 61867  42.9994 272.7046 0000800 255.3569 104.7194 15.27553330 74403
STARLINK-11402 [DTC]    
1 61874U 24204A   26062.15500509  .00000101  00000+0  56887-5 0  9999
2 61874  53.1578  28.8385 0001017 129.2950 230.8158 15.69708108 76474
